STORK-1                 
1 51087U 22002DH  22259.54548705  .00010143  00000+0  54422-3 0  9993
2 51087  97.4857 325.1706 0014497 114.8836 352.3989 15.15054133 37190